[{"OBJECT_NAME":"TRANSPORTER-12 OBJECT AZ","OBJECT_ID":"2025-009AZ","EPOCH":"2026-03-09T17:02:46.667040","MEAN_MOTION":15.30349724,"ECCENTRICITY":9.87e-5,"INCLINATION":97.3981,"RA_OF_ASC_NODE":151.9913,"ARG_OF_PERICENTER":45.3581,"MEAN_ANOMALY":314.774,"EPHEMERIS_TYPE":0,"CLASSIFICATION_TYPE":"U","NORAD_CAT_ID":62656,"ELEMENT_SET_NO":999,"REV_AT_EPOCH":6379,"BSTAR":0.00054902545,"MEAN_MOTION_DOT":0.00016057,"MEAN_MOTION_DDOT":0},{"OBJECT_NAME":"STARLINK-35929","OBJECT_ID":"2025-271J","EPOCH":"2026-03-09T12:25:18.362496","MEAN_MOTION":15.30143185,"ECCENTRICITY":0.00016389,"INCLINATION":53.1596,"RA_OF_ASC_NODE":140.4994,"ARG_OF_PERICENTER":48.6022,"MEAN_ANOMALY":311.512,"EPHEMERIS_TYPE":0,"CLASSIFICATION_TYPE":"U","NORAD_CAT_ID":66625,"ELEMENT_SET_NO":999,"REV_AT_EPOCH":1754,"BSTAR":0.00085400054,"MEAN_MOTION_DOT":0.00024975,"MEAN_MOTION_DDOT":0}]
